{"type": "FeatureCollection", "features": [ {"type": "Feature", "properties": {"norad_id": 66465, "name": "STARLINK-35448", "group": "last-30-days", "lat": -37.954487170114156, "lon": -40.621353124389884, "alt_km": 440.1684104450951, "timestamp": "2025-12-10T18:56:58.832121+00:00", "meta": {"OBJECT_NAME": "STARLINK-35448", "OBJECT_ID": "2025-262K", "EPOCH": "2025-12-10T12:00:02.998944", "MEAN_MOTION": 15.44023976, "ECCENTRICITY": 0.0001613, "INCLINATION": 43.0004, "RA_OF_ASC_NODE": 84.2256, "ARG_OF_PERICENTER": 278.8715, "MEAN_ANOMALY": 154.9187, "EPHEMERIS_TYPE": 0, "CLASSIFICATION_TYPE": "U", "NORAD_CAT_ID": 66465, "ELEMENT_SET_NO": 999, "REV_AT_EPOCH": 527, "BSTAR": -0.04841, "MEAN_MOTION_DOT": -0.02014022, "MEAN_MOTION_DDOT": 0}, "tle": {"line1": "1 66465U 25262K   25344.50003471 -.02014022  00000+0 -48410-1 0  9992", "line2": "2 66465  43.0004  84.2256 0001613 278.8715 154.9187 15.44023976  5276"}}, "geometry": {"type": "Point", "coordinates": [-40.621353124389884, -37.954487170114156]}}, {"type": "Feature", "properties": {"norad_id": 66466, "name": "STARLINK-35388", "group": "last-30-days", "lat": -40.94457225556477, "lon": -28.880130951313788, "alt_km": 436.4405095335942, "timestamp": "2025-12-10T18:56:58.832131+00:00", "meta": {"OBJECT_NAME": "STARLINK-35388", "OBJECT_ID": "2025-262L", "EPOCH": "2025-12-10T12:00:02.998944", "MEAN_MOTION": 15.45385944, "ECCENTRICITY": 0.000135, "INCLINATION": 43.0004, "RA_OF_ASC_NODE": 84.2037, "ARG_OF_PERICENTER": 275.9912, "MEAN_ANOMALY": 165.9633, "EPHEMERIS_TYPE": 0, "CLASSIFICATION_TYPE": "U", "NORAD_CAT_ID": 66466, "ELEMENT_SET_NO": 999, "REV_AT_EPOCH": 527, "BSTAR": -0.047826, "MEAN_MOTION_DOT": -0.02077161, "MEAN_MOTION_DDOT": 0}, "tle": {"line1": "1 66466U 25262L   25344.50003471 -.02077161  00000+0 -47826-1 0  9996", "line2": "2 66466  43.0004  84.2037 0001350 275.9912 165.9633 15.45385944  5274"}}, "geometry": {"type": "Point", "coordinates": [-28.880130951313788, -40.94457225556477]}}, {"type": "Feature", "properties": {"norad_id": 66467, "name": "STARLINK-35682", "group": "last-30-days", "lat": -33.22822352732075, "lon": -52.75718509461063, "alt_km": 444.38074327438335, "timestamp": "2025-12-10T18:56:58.832141+00:00", "meta": {"OBJECT_NAME": "STARLINK-35682", "OBJECT_ID": "2025-262M", "EPOCH": "2025-12-10T12:00:02.998944", "MEAN_MOTION": 15.42780871, "ECCENTRICITY": 0.0001125, "INCLINATION": 43.0005, "RA_OF_ASC_NODE": 84.2486, "ARG_OF_PERICENTER": 286.616, "MEAN_ANOMALY": 137.5631, "EPHEMERIS_TYPE": 0, "CLASSIFICATION_TYPE": "U", "NORAD_CAT_ID": 66467, "ELEMENT_SET_NO": 999, "REV_AT_EPOCH": 527, "BSTAR": -0.054538, "MEAN_MOTION_DOT": -0.02155517, "MEAN_MOTION_DDOT": 0}, "tle": {"line1": "1 66467U 25262M   25344.50003471 -.02155517  00000+0 -54538-1 0  9997", "line2": "2 66467  43.0005  84.2486 0001125 286.6160 137.5631 15.42780871  5276"}}, "geometry": {"type": "Point", "coordinates": [-52.75718509461063, -33.22822352732075]}}, {"type": "Feature", "properties": {"norad_id": 66468, "name": "STARLINK-35331", "group": "last-30-days", "lat": -42.97074271504224, "lon": -6.018231014745106, "alt_km": 419.46532404001846, "timestamp": "2025-12-10T18:56:58.832153+00:00", "meta": {"OBJECT_NAME": "STARLINK-35331", "OBJECT_ID": "2025-262N", "EPOCH": "2025-12-09T18:35:23.867520", "MEAN_MOTION": 15.50297909, "ECCENTRICITY": 0.00010504, "INCLINATION": 43.001, "RA_OF_ASC_NODE": 88.4141, "ARG_OF_PERICENTER": 308.1089, "MEAN_ANOMALY": 51.9676, "EPHEMERIS_TYPE": 0, "CLASSIFICATION_TYPE": "U", "NORAD_CAT_ID": 66468, "ELEMENT_SET_NO": 999, "REV_AT_EPOCH": 510, "BSTAR": -0.0022109145, "MEAN_MOTION_DOT": -0.00126691, "MEAN_MOTION_DDOT": 0}, "tle": {"line1": "1 66468U 25262N   25343.77458180 -.00126691  00000+0 -22109-2 0  9996", "line2": "2 66468  43.0010  88.4141 0001050 308.1089  51.9676 15.50297909  5108"}}, "geometry": {"type": "Point", "coordinates": [-6.018231014745106, -42.97074271504224]}}, {"type": "Feature", "properties": {"norad_id": 66469, "name": "STARLINK-35451", "group": "last-30-days", "lat": -42.377350919194235, "lon": 4.191743674406736, "alt_km": 417.0488786438, "timestamp": "2025-12-10T18:56:58.832164+00:00", "meta": {"OBJECT_NAME": "STARLINK-35451", "OBJECT_ID": "2025-262P", "EPOCH": "2025-12-10T11:34:11.292096", "MEAN_MOTION": 15.50604554, "ECCENTRICITY": 0.0001598, "INCLINATION": 43.0005, "RA_OF_ASC_NODE": 84.26, "ARG_OF_PERICENTER": 267.6655, "MEAN_ANOMALY": 92.4022, "EPHEMERIS_TYPE": 0, "CLASSIFICATION_TYPE": "U", "NORAD_CAT_ID": 66469, "ELEMENT_SET_NO": 999, "REV_AT_EPOCH": 521, "BSTAR": 0.0017369, "MEAN_MOTION_DOT": 0.00102999, "MEAN_MOTION_DDOT": 0}, "tle": {"line1": "1 66469U 25262P   25344.48207514  .00102999  00000+0  17369-2 0  9994", "line2": "2 66469  43.0005  84.2600 0001598 267.6655  92.4022 15.50604554  5217"}}, "geometry": {"type": "Point", "coordinates": [4.191743674406736, -42.377350919194235]}}, {"type": "Feature", "properties": {"norad_id": 66470, "name": "STARLINK-35655", "group": "last-30-days", "lat": -42.96901002137615, "lon": -9.094822395656665, "alt_km": 428.7232519117997, "timestamp": "2025-12-10T18:56:58.832175+00:00", "meta": {"OBJECT_NAME": "STARLINK-35655", "OBJECT_ID": "2025-262Q", "EPOCH": "2025-12-10T12:00:02.998944", "MEAN_MOTION": 15.48058863, "ECCENTRICITY": 0.00013, "INCLINATION": 43.0003, "RA_OF_ASC_NODE": 84.1744, "ARG_OF_PERICENTER": 286.1017, "MEAN_ANOMALY": 167.9327, "EPHEMERIS_TYPE": 0, "CLASSIFICATION_TYPE": "U", "NORAD_CAT_ID": 66470, "ELEMENT_SET_NO": 999, "REV_AT_EPOCH": 527, "BSTAR": -0.044147, "MEAN_MOTION_DOT": -0.02101991, "MEAN_MOTION_DDOT": 0}, "tle": {"line1": "1 66470U 25262Q   25344.50003471 -.02101991  00000+0 -44147-1 0  9993", "line2": "2 66470  43.0003  84.1744 0001300 286.1017 167.9327 15.48058863  5279"}}, "geometry": {"type": "Point", "coordinates": [-9.094822395656665, -42.96901002137615]}}, {"type": "Feature", "properties": {"norad_id": 66471, "name": "STARLINK-35569", "group": "last-30-days", "lat": -42.66508292231989, "lon": 0.9593969434607081, "alt_km": 417.61519680859146, "timestamp": "2025-12-10T18:56:58.832185+00:00", "meta": {"OBJECT_NAME": "STARLINK-35569", "OBJECT_ID": "2025-262R", "EPOCH": "2025-12-10T08:29:11.778720", "MEAN_MOTION": 15.50319363, "ECCENTRICITY": 0.0001981, "INCLINATION": 43.0004, "RA_OF_ASC_NODE": 85.0176, "ARG_OF_PERICENTER": 247.1656, "MEAN_ANOMALY": 112.8995, "EPHEMERIS_TYPE": 0, "CLASSIFICATION_TYPE": "U", "NORAD_CAT_ID": 66471, "ELEMENT_SET_NO": 999, "REV_AT_EPOCH": 519, "BSTAR": 0.0022094, "MEAN_MOTION_DOT": 0.00130242, "MEAN_MOTION_DDOT": 0}, "tle": {"line1": "1 66471U 25262R   25344.35360855  .00130242  00000+0  22094-2 0  9994", "line2": "2 66471  43.0004  85.0176 0001981 247.1656 112.8995 15.50319363  5190"}}, "geometry": {"type": "Point", "coordinates": [0.9593969434607081, -42.66508292231989]}}, {"type": "Feature", "properties": {"norad_id": 66472, "name": "STARLINK-35567", "group": "last-30-days", "lat": -42.08107811686645, "lon": 6.760598700061015, "alt_km": 416.9591648572432, "timestamp": "2025-12-10T18:56:58.832195+00:00", "meta": {"OBJECT_NAME": "STARLINK-35567", "OBJECT_ID": "2025-262S", "EPOCH": "2025-12-10T11:33:41.650848", "MEAN_MOTION": 15.50613801, "ECCENTRICITY": 0.000162, "INCLINATION": 43.0003, "RA_OF_ASC_NODE": 84.258, "ARG_OF_PERICENTER": 274.2035, "MEAN_ANOMALY": 85.864, "EPHEMERIS_TYPE": 0, "CLASSIFICATION_TYPE": "U", "NORAD_CAT_ID": 66472, "ELEMENT_SET_NO": 999, "REV_AT_EPOCH": 521, "BSTAR": 0.0019799, "MEAN_MOTION_DOT": 0.0011772, "MEAN_MOTION_DDOT": 0}, "tle": {"line1": "1 66472U 25262S   25344.48173207  .00117720  00000+0  19799-2 0  9996", "line2": "2 66472  43.0003  84.2580 0001620 274.2035  85.8640 15.50613801  5215"}}, "geometry": {"type": "Point", "coordinates": [6.760598700061015, -42.08107811686645]}}, {"type": "Feature", "properties": {"norad_id": 66473, "name": "STARLINK-35568", "group": "last-30-days", "lat": -41.72923674138116, "lon": 9.298867715845953, "alt_km": 417.016012573381, "timestamp": "2025-12-10T18:56:58.832207+00:00", "meta": {"OBJECT_NAME": "STARLINK-35568", "OBJECT_ID": "2025-262T", "EPOCH": "2025-12-10T10:00:26.532864", "MEAN_MOTION": 15.50612944, "ECCENTRICITY": 0.0001568, "INCLINATION": 43.001, "RA_OF_ASC_NODE": 84.6313, "ARG_OF_PERICENTER": 274.6752, "MEAN_ANOMALY": 85.3929, "EPHEMERIS_TYPE": 0, "CLASSIFICATION_TYPE": "U", "NORAD_CAT_ID": 66473, "ELEMENT_SET_NO": 999, "REV_AT_EPOCH": 520, "BSTAR": 0.0013936, "MEAN_MOTION_DOT": 0.0008238, "MEAN_MOTION_DDOT": 0}, "tle": {"line1": "1 66473U 25262T   25344.41697376  .00082380  00000+0  13936-2 0  9998", "line2": "2 66473  43.0010  84.6313 0001568 274.6752  85.3929 15.50612944  5204"}}, "geometry": {"type": "Point", "coordinates": [9.298867715845953, -41.72923674138116]}}, {"type": "Feature", "properties": {"norad_id": 66474, "name": "STARLINK-35620", "group": "last-30-days", "lat": -41.3710350937963, "lon": 11.51855592512113, "alt_km": 417.5770911174068, "timestamp": "2025-12-10T18:56:58.832218+00:00", "meta": {"OBJECT_NAME": "STARLINK-35620", "OBJECT_ID": "2025-262U", "EPOCH": "2025-12-10T09:59:58.572096", "MEAN_MOTION": 15.5053595, "ECCENTRICITY": 0.0001069, "INCLINATION": 43.0007, "RA_OF_ASC_NODE": 84.6285, "ARG_OF_PERICENTER": 283.2418, "MEAN_ANOMALY": 76.8323, "EPHEMERIS_TYPE": 0, "CLASSIFICATION_TYPE": "U", "NORAD_CAT_ID": 66474, "ELEMENT_SET_NO": 999, "REV_AT_EPOCH": 520, "BSTAR": 0.0012624, "MEAN_MOTION_DOT": 0.00074307, "MEAN_MOTION_DDOT": 0}, "tle": {"line1": "1 66474U 25262U   25344.41665014  .00074307  00000+0  12624-2 0  9996", "line2": "2 66474  43.0007  84.6285 0001069 283.2418  76.8323 15.50535950  5204"}}, "geometry": {"type": "Point", "coordinates": [11.51855592512113, -41.3710350937963]}}]}